<?xml version="1.0" encoding="UTF-8"?>
<gpx version="1.1" creator="ESP32-C6 Tracker" xmlns="http://www.topografix.com/GPX/1/1">
  <metadata>
    <name>Ba Vi Summit Trek Demo</name>
  </metadata>
  <trk>
    <name>Ba Vi Summit Trek Demo</name>
    <trkseg>
      <trkpt lat="21.070095" lon="105.362102"><ele>200.0</ele></trkpt>
      <trkpt lat="21.070187" lon="105.362208"><ele>202.5</ele></trkpt>
      <trkpt lat="21.070272" lon="105.362320"><ele>205.0</ele></trkpt>
      <trkpt lat="21.070346" lon="105.362441"><ele>207.5</ele></trkpt>
      <trkpt lat="21.070403" lon="105.362571"><ele>210.0</ele></trkpt>
      <trkpt lat="21.070440" lon="105.362710"><ele>212.5</ele></trkpt>
      <trkpt lat="21.070450" lon="105.362854"><ele>215.0</ele></trkpt>
      <trkpt lat="21.070431" lon="105.362997"><ele>217.5</ele></trkpt>
      <trkpt lat="21.070378" lon="105.363130"><ele>220.0</ele></trkpt>
      <trkpt lat="21.070295" lon="105.363243"><ele>222.5</ele></trkpt>
      <trkpt lat="21.070184" lon="105.363326"><ele>225.0</ele></trkpt>
      <trkpt lat="21.070055" lon="105.363368"><ele>227.5</ele></trkpt>
      <trkpt lat="21.069920" lon="105.363363"><ele>230.0</ele></trkpt>
      <trkpt lat="21.069794" lon="105.363311"><ele>232.5</ele></trkpt>
      <trkpt lat="21.069692" lon="105.363217"><ele>235.0</ele></trkpt>
      <trkpt lat="21.069626" lon="105.363091"><ele>237.5</ele></trkpt>
      <trkpt lat="21.069604" lon="105.362949"><ele>240.0</ele></trkpt>
      <trkpt lat="21.069629" lon="105.362807"><ele>242.5</ele></trkpt>
      <trkpt lat="21.069696" lon="105.362682"><ele>245.0</ele></trkpt>
      <trkpt lat="21.069798" lon="105.362587"><ele>247.5</ele></trkpt>
      <trkpt lat="21.069922" lon="105.362531"><ele>250.0</ele></trkpt>
      <trkpt lat="21.070056" lon="105.362516"><ele>252.5</ele></trkpt>
      <trkpt lat="21.070189" lon="105.362543"><ele>255.0</ele></trkpt>
      <trkpt lat="21.070310" lon="105.362605"><ele>257.5</ele></trkpt>
      <trkpt lat="21.070415" lon="105.362696"><ele>260.0</ele></trkpt>
      <trkpt lat="21.070500" lon="105.362808"><ele>262.5</ele></trkpt>
      <trkpt lat="21.070565" lon="105.362934"><ele>265.0</ele></trkpt>
      <trkpt lat="21.070611" lon="105.363070"><ele>267.5</ele></trkpt>
      <trkpt lat="21.070643" lon="105.363210"><ele>270.0</ele></trkpt>
      <trkpt lat="21.070663" lon="105.363353"><ele>272.5</ele></trkpt>
      <trkpt lat="21.070677" lon="105.363496"><ele>275.0</ele></trkpt>
      <trkpt lat="21.070689" lon="105.363640"><ele>277.5</ele></trkpt>
      <trkpt lat="21.070704" lon="105.363784"><ele>280.0</ele></trkpt>
      <trkpt lat="21.070726" lon="105.363926"><ele>282.5</ele></trkpt>
      <trkpt lat="21.070760" lon="105.364066"><ele>285.0</ele></trkpt>
      <trkpt lat="21.070809" lon="105.364200"><ele>287.5</ele></trkpt>
      <trkpt lat="21.070877" lon="105.364325"><ele>290.0</ele></trkpt>
      <trkpt lat="21.070966" lon="105.364434"><ele>292.5</ele></trkpt>
      <trkpt lat="21.071074" lon="105.364520"><ele>295.0</ele></trkpt>
      <trkpt lat="21.071198" lon="105.364577"><ele>297.5</ele></trkpt>
      <trkpt lat="21.071331" lon="105.364597"><ele>300.0</ele></trkpt>
      <trkpt lat="21.071465" lon="105.364575"><ele>302.5</ele></trkpt>
      <trkpt lat="21.071586" lon="105.364512"><ele>305.0</ele></trkpt>
      <trkpt lat="21.071682" lon="105.364412"><ele>307.5</ele></trkpt>
      <trkpt lat="21.071743" lon="105.364283"><ele>310.0</ele></trkpt>
      <trkpt lat="21.071760" lon="105.364139"><ele>312.5</ele></trkpt>
      <trkpt lat="21.071730" lon="105.363998"><ele>315.0</ele></trkpt>
      <trkpt lat="21.071657" lon="105.363877"><ele>317.5</ele></trkpt>
      <trkpt lat="21.071550" lon="105.363789"><ele>320.0</ele></trkpt>
      <trkpt lat="21.071422" lon="105.363745"><ele>322.5</ele></trkpt>
      <trkpt lat="21.071287" lon="105.363749"><ele>325.0</ele></trkpt>
      <trkpt lat="21.071161" lon="105.363798"><ele>327.5</ele></trkpt>
      <trkpt lat="21.071054" lon="105.363886"><ele>330.0</ele></trkpt>
      <trkpt lat="21.070975" lon="105.364004"><ele>332.5</ele></trkpt>
      <trkpt lat="21.070929" lon="105.364139"><ele>335.0</ele></trkpt>
      <trkpt lat="21.070914" lon="105.364283"><ele>337.5</ele></trkpt>
      <trkpt lat="21.070929" lon="105.364426"><ele>340.0</ele></trkpt>
      <trkpt lat="21.070970" lon="105.364564"><ele>342.5</ele></trkpt>
      <trkpt lat="21.071030" lon="105.364693"><ele>345.0</ele></trkpt>
      <trkpt lat="21.071106" lon="105.364812"><ele>347.5</ele></trkpt>
      <trkpt lat="21.071193" lon="105.364923"><ele>350.0</ele></trkpt>
      <trkpt lat="21.071285" lon="105.365028"><ele>352.5</ele></trkpt>
      <trkpt lat="21.071381" lon="105.365130"><ele>355.0</ele></trkpt>
      <trkpt lat="21.071476" lon="105.365232"><ele>357.5</ele></trkpt>
      <trkpt lat="21.071567" lon="105.365339"><ele>360.0</ele></trkpt>
      <trkpt lat="21.071650" lon="105.365452"><ele>362.5</ele></trkpt>
      <trkpt lat="21.071721" lon="105.365575"><ele>365.0</ele></trkpt>
      <trkpt lat="21.071776" lon="105.365707"><ele>367.5</ele></trkpt>
      <trkpt lat="21.071808" lon="105.365847"><ele>370.0</ele></trkpt>
      <trkpt lat="21.071814" lon="105.365991"><ele>372.5</ele></trkpt>
      <trkpt lat="21.071789" lon="105.366133"><ele>375.0</ele></trkpt>
      <trkpt lat="21.071731" lon="105.366264"><ele>377.5</ele></trkpt>
      <trkpt lat="21.071642" lon="105.366372"><ele>380.0</ele></trkpt>
      <trkpt lat="21.071528" lon="105.366448"><ele>382.5</ele></trkpt>
      <trkpt lat="21.071397" lon="105.366483"><ele>385.0</ele></trkpt>
      <trkpt lat="21.071263" lon="105.366470"><ele>387.5</ele></trkpt>
      <trkpt lat="21.071140" lon="105.366411"><ele>390.0</ele></trkpt>
      <trkpt lat="21.071043" lon="105.366310"><ele>392.5</ele></trkpt>
      <trkpt lat="21.070984" lon="105.366181"><ele>395.0</ele></trkpt>
      <trkpt lat="21.070970" lon="105.366037"><ele>397.5</ele></trkpt>
      <trkpt lat="21.071002" lon="105.365897"><ele>400.0</ele></trkpt>
      <trkpt lat="21.071076" lon="105.365776"><ele>402.5</ele></trkpt>
      <trkpt lat="21.071182" lon="105.365687"><ele>405.0</ele></trkpt>
      <trkpt lat="21.071309" lon="105.365638"><ele>407.5</ele></trkpt>
      <trkpt lat="21.071443" lon="105.365631"><ele>410.0</ele></trkpt>
      <trkpt lat="21.071575" lon="105.365663"><ele>412.5</ele></trkpt>
      <trkpt lat="21.071694" lon="105.365731"><ele>415.0</ele></trkpt>
      <trkpt lat="21.071795" lon="105.365826"><ele>417.5</ele></trkpt>
      <trkpt lat="21.071877" lon="105.365941"><ele>420.0</ele></trkpt>
      <trkpt lat="21.071939" lon="105.366069"><ele>422.5</ele></trkpt>
      <trkpt lat="21.071982" lon="105.366206"><ele>425.0</ele></trkpt>
      <trkpt lat="21.072012" lon="105.366346"><ele>427.5</ele></trkpt>
      <trkpt lat="21.072031" lon="105.366489"><ele>430.0</ele></trkpt>
      <trkpt lat="21.072044" lon="105.366633"><ele>432.5</ele></trkpt>
      <trkpt lat="21.072056" lon="105.366777"><ele>435.0</ele></trkpt>
      <trkpt lat="21.072072" lon="105.366920"><ele>437.5</ele></trkpt>
      <trkpt lat="21.072095" lon="105.367063"><ele>440.0</ele></trkpt>
      <trkpt lat="21.072132" lon="105.367202"><ele>442.5</ele></trkpt>
      <trkpt lat="21.072184" lon="105.367335"><ele>445.0</ele></trkpt>
      <trkpt lat="21.072256" lon="105.367457"><ele>447.5</ele></trkpt>
      <trkpt lat="21.072347" lon="105.367563"><ele>450.0</ele></trkpt>
      <trkpt lat="21.072458" lon="105.367645"><ele>452.5</ele></trkpt>
      <trkpt lat="21.072584" lon="105.367695"><ele>455.0</ele></trkpt>
      <trkpt lat="21.072719" lon="105.367709"><ele>457.5</ele></trkpt>
      <trkpt lat="21.072851" lon="105.367680"><ele>460.0</ele></trkpt>
      <trkpt lat="21.072969" lon="105.367610"><ele>462.5</ele></trkpt>
      <trkpt lat="21.073060" lon="105.367504"><ele>465.0</ele></trkpt>
      <trkpt lat="21.073114" lon="105.367372"><ele>467.5</ele></trkpt>
      <trkpt lat="21.073123" lon="105.367228"><ele>470.0</ele></trkpt>
      <trkpt lat="21.073085" lon="105.367089"><ele>472.5</ele></trkpt>
      <trkpt lat="21.073006" lon="105.366972"><ele>475.0</ele></trkpt>
      <trkpt lat="21.072894" lon="105.366891"><ele>477.5</ele></trkpt>
      <trkpt lat="21.072764" lon="105.366855"><ele>480.0</ele></trkpt>
      <trkpt lat="21.072630" lon="105.366867"><ele>482.5</ele></trkpt>
      <trkpt lat="21.072506" lon="105.366923"><ele>485.0</ele></trkpt>
      <trkpt lat="21.072403" lon="105.367017"><ele>487.5</ele></trkpt>
      <trkpt lat="21.072330" lon="105.367138"><ele>490.0</ele></trkpt>
      <trkpt lat="21.072289" lon="105.367275"><ele>492.5</ele></trkpt>
      <trkpt lat="21.072279" lon="105.367419"><ele>495.0</ele></trkpt>
      <trkpt lat="21.072299" lon="105.367562"><ele>497.5</ele></trkpt>
      <trkpt lat="21.072343" lon="105.367699"><ele>500.0</ele></trkpt>
      <trkpt lat="21.072407" lon="105.367826"><ele>502.5</ele></trkpt>
      <trkpt lat="21.072485" lon="105.367944"><ele>505.0</ele></trkpt>
      <trkpt lat="21.072572" lon="105.368053"><ele>507.5</ele></trkpt>
      <trkpt lat="21.072666" lon="105.368158"><ele>510.0</ele></trkpt>
      <trkpt lat="21.072762" lon="105.368259"><ele>512.5</ele></trkpt>
      <trkpt lat="21.072856" lon="105.368362"><ele>515.0</ele></trkpt>
      <trkpt lat="21.072946" lon="105.368470"><ele>517.5</ele></trkpt>
      <trkpt lat="21.073028" lon="105.368585"><ele>520.0</ele></trkpt>
      <trkpt lat="21.073096" lon="105.368709"><ele>522.5</ele></trkpt>
      <trkpt lat="21.073148" lon="105.368842"><ele>525.0</ele></trkpt>
      <trkpt lat="21.073176" lon="105.368984"><ele>527.5</ele></trkpt>
      <trkpt lat="21.073177" lon="105.369128"><ele>530.0</ele></trkpt>
      <trkpt lat="21.073146" lon="105.369269"><ele>532.5</ele></trkpt>
      <trkpt lat="21.073083" lon="105.369396"><ele>535.0</ele></trkpt>
      <trkpt lat="21.072989" lon="105.369500"><ele>537.5</ele></trkpt>
      <trkpt lat="21.072871" lon="105.369570"><ele>540.0</ele></trkpt>
      <trkpt lat="21.072739" lon="105.369597"><ele>542.5</ele></trkpt>
      <trkpt lat="21.072605" lon="105.369576"><ele>545.0</ele></trkpt>
      <trkpt lat="21.072486" lon="105.369509"><ele>547.5</ele></trkpt>
      <trkpt lat="21.072395" lon="105.369403"><ele>550.0</ele></trkpt>
      <trkpt lat="21.072343" lon="105.369269"><ele>552.5</ele></trkpt>
      <trkpt lat="21.072337" lon="105.369125"><ele>555.0</ele></trkpt>
      <trkpt lat="21.072377" lon="105.368987"><ele>557.5</ele></trkpt>
      <trkpt lat="21.072456" lon="105.368871"><ele>560.0</ele></trkpt>
      <trkpt lat="21.072567" lon="105.368788"><ele>562.5</ele></trkpt>
      <trkpt lat="21.072696" lon="105.368746"><ele>565.0</ele></trkpt>
      <trkpt lat="21.072831" lon="105.368746"><ele>567.5</ele></trkpt>
      <trkpt lat="21.072960" lon="105.368785"><ele>570.0</ele></trkpt>
      <trkpt lat="21.073077" lon="105.368858"><ele>572.5</ele></trkpt>
      <trkpt lat="21.073175" lon="105.368956"><ele>575.0</ele></trkpt>
      <trkpt lat="21.073253" lon="105.369074"><ele>577.5</ele></trkpt>
      <trkpt lat="21.073312" lon="105.369204"><ele>580.0</ele></trkpt>
      <trkpt lat="21.073353" lon="105.369342"><ele>582.5</ele></trkpt>
      <trkpt lat="21.073380" lon="105.369483"><ele>585.0</ele></trkpt>
      <trkpt lat="21.073398" lon="105.369626"><ele>587.5</ele></trkpt>
      <trkpt lat="21.073411" lon="105.369770"><ele>590.0</ele></trkpt>
      <trkpt lat="21.073423" lon="105.369914"><ele>592.5</ele></trkpt>
      <trkpt lat="21.073440" lon="105.370057"><ele>595.0</ele></trkpt>
      <trkpt lat="21.073465" lon="105.370199"><ele>597.5</ele></trkpt>
      <trkpt lat="21.073504" lon="105.370337"><ele>600.0</ele></trkpt>
      <trkpt lat="21.073559" lon="105.370469"><ele>602.5</ele></trkpt>
      <trkpt lat="21.073634" lon="105.370589"><ele>605.0</ele></trkpt>
      <trkpt lat="21.073729" lon="105.370691"><ele>607.5</ele></trkpt>
      <trkpt lat="21.073843" lon="105.370768"><ele>610.0</ele></trkpt>
      <trkpt lat="21.073971" lon="105.370813"><ele>612.5</ele></trkpt>
      <trkpt lat="21.074106" lon="105.370819"><ele>615.0</ele></trkpt>
      <trkpt lat="21.074237" lon="105.370784"><ele>617.5</ele></trkpt>
      <trkpt lat="21.074351" lon="105.370707"><ele>620.0</ele></trkpt>
      <trkpt lat="21.074436" lon="105.370596"><ele>622.5</ele></trkpt>
      <trkpt lat="21.074483" lon="105.370460"><ele>625.0</ele></trkpt>
      <trkpt lat="21.074484" lon="105.370316"><ele>627.5</ele></trkpt>
      <trkpt lat="21.074439" lon="105.370180"><ele>630.0</ele></trkpt>
      <trkpt lat="21.074354" lon="105.370068"><ele>632.5</ele></trkpt>
      <trkpt lat="21.074238" lon="105.369994"><ele>635.0</ele></trkpt>
      <trkpt lat="21.074106" lon="105.369966"><ele>637.5</ele></trkpt>
      <trkpt lat="21.073972" lon="105.369986"><ele>640.0</ele></trkpt>
      <trkpt lat="21.073851" lon="105.370049"><ele>642.5</ele></trkpt>
      <trkpt lat="21.073753" lon="105.370148"><ele>645.0</ele></trkpt>
      <trkpt lat="21.073685" lon="105.370273"><ele>647.5</ele></trkpt>
      <trkpt lat="21.073649" lon="105.370412"><ele>650.0</ele></trkpt>
      <trkpt lat="21.073645" lon="105.370556"><ele>652.5</ele></trkpt>
      <trkpt lat="21.073670" lon="105.370698"><ele>655.0</ele></trkpt>
      <trkpt lat="21.073717" lon="105.370833"><ele>657.5</ele></trkpt>
      <trkpt lat="21.073784" lon="105.370959"><ele>660.0</ele></trkpt>
      <trkpt lat="21.073864" lon="105.371075"><ele>662.5</ele></trkpt>
      <trkpt lat="21.073952" lon="105.371184"><ele>665.0</ele></trkpt>
      <trkpt lat="21.074047" lon="105.371287"><ele>667.5</ele></trkpt>
      <trkpt lat="21.074142" lon="105.371389"><ele>670.0</ele></trkpt>
      <trkpt lat="21.074236" lon="105.371492"><ele>672.5</ele></trkpt>
      <trkpt lat="21.074325" lon="105.371601"><ele>675.0</ele></trkpt>
      <trkpt lat="21.074405" lon="105.371717"><ele>677.5</ele></trkpt>
      <trkpt lat="21.074471" lon="105.371843"><ele>680.0</ele></trkpt>
      <trkpt lat="21.074519" lon="105.371978"><ele>682.5</ele></trkpt>
      <trkpt lat="21.074543" lon="105.372120"><ele>685.0</ele></trkpt>
      <trkpt lat="21.074538" lon="105.372265"><ele>687.5</ele></trkpt>
      <trkpt lat="21.074502" lon="105.372404"><ele>690.0</ele></trkpt>
      <trkpt lat="21.074434" lon="105.372528"><ele>692.5</ele></trkpt>
      <trkpt lat="21.074336" lon="105.372627"><ele>695.0</ele></trkpt>
      <trkpt lat="21.074214" lon="105.372690"><ele>697.5</ele></trkpt>
      <trkpt lat="21.074081" lon="105.372709"><ele>700.0</ele></trkpt>
      <trkpt lat="21.073949" lon="105.372680"><ele>702.5</ele></trkpt>
      <trkpt lat="21.073833" lon="105.372606"><ele>705.0</ele></trkpt>
      <trkpt lat="21.073748" lon="105.372494"><ele>707.5</ele></trkpt>
      <trkpt lat="21.073703" lon="105.372358"><ele>710.0</ele></trkpt>
      <trkpt lat="21.073705" lon="105.372214"><ele>712.5</ele></trkpt>
      <trkpt lat="21.073752" lon="105.372078"><ele>715.0</ele></trkpt>
      <trkpt lat="21.073838" lon="105.371967"><ele>717.5</ele></trkpt>
      <trkpt lat="21.073952" lon="105.371891"><ele>720.0</ele></trkpt>
      <trkpt lat="21.074083" lon="105.371856"><ele>722.5</ele></trkpt>
      <trkpt lat="21.074218" lon="105.371863"><ele>725.0</ele></trkpt>
      <trkpt lat="21.074346" lon="105.371908"><ele>727.5</ele></trkpt>
      <trkpt lat="21.074459" lon="105.371985"><ele>730.0</ele></trkpt>
      <trkpt lat="21.074554" lon="105.372088"><ele>732.5</ele></trkpt>
      <trkpt lat="21.074629" lon="105.372208"><ele>735.0</ele></trkpt>
      <trkpt lat="21.074684" lon="105.372339"><ele>737.5</ele></trkpt>
      <trkpt lat="21.074723" lon="105.372478"><ele>740.0</ele></trkpt>
      <trkpt lat="21.074748" lon="105.372620"><ele>742.5</ele></trkpt>
      <trkpt lat="21.074765" lon="105.372763"><ele>745.0</ele></trkpt>
      <trkpt lat="21.074777" lon="105.372907"><ele>747.5</ele></trkpt>
      <trkpt lat="21.074790" lon="105.373050"><ele>750.0</ele></trkpt>
      <trkpt lat="21.074808" lon="105.373194"><ele>752.5</ele></trkpt>
      <trkpt lat="21.074835" lon="105.373335"><ele>755.0</ele></trkpt>
      <trkpt lat="21.074877" lon="105.373472"><ele>757.5</ele></trkpt>
      <trkpt lat="21.074935" lon="105.373602"><ele>760.0</ele></trkpt>
      <trkpt lat="21.075013" lon="105.373720"><ele>762.5</ele></trkpt>
      <trkpt lat="21.075112" lon="105.373819"><ele>765.0</ele></trkpt>
      <trkpt lat="21.075229" lon="105.373891"><ele>767.5</ele></trkpt>
      <trkpt lat="21.075358" lon="105.373929"><ele>770.0</ele></trkpt>
      <trkpt lat="21.075493" lon="105.373929"><ele>772.5</ele></trkpt>
      <trkpt lat="21.075622" lon="105.373886"><ele>775.0</ele></trkpt>
      <trkpt lat="21.075732" lon="105.373803"><ele>777.5</ele></trkpt>
      <trkpt lat="21.075812" lon="105.373687"><ele>780.0</ele></trkpt>
      <trkpt lat="21.075851" lon="105.373549"><ele>782.5</ele></trkpt>
      <trkpt lat="21.075845" lon="105.373405"><ele>785.0</ele></trkpt>
      <trkpt lat="21.075792" lon="105.373271"><ele>787.5</ele></trkpt>
      <trkpt lat="21.075701" lon="105.373165"><ele>790.0</ele></trkpt>
      <trkpt lat="21.075581" lon="105.373099"><ele>792.5</ele></trkpt>
      <trkpt lat="21.075448" lon="105.373079"><ele>795.0</ele></trkpt>
      <trkpt lat="21.075315" lon="105.373106"><ele>797.5</ele></trkpt>
      <trkpt lat="21.075198" lon="105.373176"><ele>800.0</ele></trkpt>
      <trkpt lat="21.075104" lon="105.373280"><ele>802.5</ele></trkpt>
      <trkpt lat="21.075042" lon="105.373408"><ele>805.0</ele></trkpt>
      <trkpt lat="21.075011" lon="105.373549"><ele>807.5</ele></trkpt>
      <trkpt lat="21.075012" lon="105.373693"><ele>810.0</ele></trkpt>
      <trkpt lat="21.075041" lon="105.373834"><ele>812.5</ele></trkpt>
      <trkpt lat="21.075092" lon="105.373968"><ele>815.0</ele></trkpt>
      <trkpt lat="21.075161" lon="105.374092"><ele>817.5</ele></trkpt>
      <trkpt lat="21.075243" lon="105.374207"><ele>820.0</ele></trkpt>
      <trkpt lat="21.075333" lon="105.374314"><ele>822.5</ele></trkpt>
      <trkpt lat="21.075427" lon="105.374417"><ele>825.0</ele></trkpt>
      <trkpt lat="21.075523" lon="105.374519"><ele>827.5</ele></trkpt>
      <trkpt lat="21.075616" lon="105.374623"><ele>830.0</ele></trkpt>
      <trkpt lat="21.075704" lon="105.374733"><ele>832.5</ele></trkpt>
      <trkpt lat="21.075782" lon="105.374850"><ele>835.0</ele></trkpt>
      <trkpt lat="21.075845" lon="105.374978"><ele>837.5</ele></trkpt>
      <trkpt lat="21.075889" lon="105.375114"><ele>840.0</ele></trkpt>
      <trkpt lat="21.075909" lon="105.375257"><ele>842.5</ele></trkpt>
      <trkpt lat="21.075899" lon="105.375401"><ele>845.0</ele></trkpt>
      <trkpt lat="21.075858" lon="105.375539"><ele>847.5</ele></trkpt>
      <trkpt lat="21.075784" lon="105.375659"><ele>850.0</ele></trkpt>
      <trkpt lat="21.075681" lon="105.375753"><ele>852.5</ele></trkpt>
      <trkpt lat="21.075557" lon="105.375809"><ele>855.0</ele></trkpt>
      <trkpt lat="21.075423" lon="105.375820"><ele>857.5</ele></trkpt>
      <trkpt lat="21.075292" lon="105.375784"><ele>860.0</ele></trkpt>
      <trkpt lat="21.075181" lon="105.375702"><ele>862.5</ele></trkpt>
      <trkpt lat="21.075102" lon="105.375585"><ele>865.0</ele></trkpt>
      <trkpt lat="21.075065" lon="105.375447"><ele>867.5</ele></trkpt>
      <trkpt lat="21.075075" lon="105.375302"><ele>870.0</ele></trkpt>
      <trkpt lat="21.075129" lon="105.375170"><ele>872.5</ele></trkpt>
      <trkpt lat="21.075220" lon="105.375064"><ele>875.0</ele></trkpt>
      <trkpt lat="21.075338" lon="105.374995"><ele>877.5</ele></trkpt>
      <trkpt lat="21.075470" lon="105.374967"><ele>880.0</ele></trkpt>
      <trkpt lat="21.075605" lon="105.374980"><ele>882.5</ele></trkpt>
      <trkpt lat="21.075731" lon="105.375031"><ele>885.0</ele></trkpt>
      <trkpt lat="21.075841" lon="105.375113"><ele>887.5</ele></trkpt>
      <trkpt lat="21.075933" lon="105.375219"><ele>890.0</ele></trkpt>
      <trkpt lat="21.076004" lon="105.375342"><ele>892.5</ele></trkpt>
      <trkpt lat="21.076057" lon="105.375475"><ele>895.0</ele></trkpt>
      <trkpt lat="21.076093" lon="105.375614"><ele>897.5</ele></trkpt>
      <trkpt lat="21.076116" lon="105.375756"><ele>900.0</ele></trkpt>
      <trkpt lat="21.076132" lon="105.375900"><ele>902.5</ele></trkpt>
      <trkpt lat="21.076144" lon="105.376043"><ele>905.0</ele></trkpt>
      <trkpt lat="21.076157" lon="105.376187"><ele>907.5</ele></trkpt>
      <trkpt lat="21.076176" lon="105.376330"><ele>910.0</ele></trkpt>
      <trkpt lat="21.076206" lon="105.376471"><ele>912.5</ele></trkpt>
      <trkpt lat="21.076250" lon="105.376608"><ele>915.0</ele></trkpt>
      <trkpt lat="21.076312" lon="105.376736"><ele>917.5</ele></trkpt>
      <trkpt lat="21.076393" lon="105.376851"><ele>920.0</ele></trkpt>
      <trkpt lat="21.076495" lon="105.376945"><ele>922.5</ele></trkpt>
      <trkpt lat="21.076614" lon="105.377012"><ele>925.0</ele></trkpt>
      <trkpt lat="21.076746" lon="105.377045"><ele>927.5</ele></trkpt>
      <trkpt lat="21.076880" lon="105.377037"><ele>930.0</ele></trkpt>
      <trkpt lat="21.077007" lon="105.376988"><ele>932.5</ele></trkpt>
      <trkpt lat="21.077113" lon="105.376899"><ele>935.0</ele></trkpt>
      <trkpt lat="21.077186" lon="105.376777"><ele>937.5</ele></trkpt>
      <trkpt lat="21.077218" lon="105.376637"><ele>940.0</ele></trkpt>
      <trkpt lat="21.077203" lon="105.376494"><ele>942.5</ele></trkpt>
      <trkpt lat="21.077144" lon="105.376364"><ele>945.0</ele></trkpt>
      <trkpt lat="21.077047" lon="105.376264"><ele>947.5</ele></trkpt>
      <trkpt lat="21.076924" lon="105.376205"><ele>950.0</ele></trkpt>
      <trkpt lat="21.076790" lon="105.376193"><ele>952.5</ele></trkpt>
      <trkpt lat="21.076659" lon="105.376228"><ele>955.0</ele></trkpt>
      <trkpt lat="21.076545" lon="105.376304"><ele>957.5</ele></trkpt>
      <trkpt lat="21.076456" lon="105.376413"><ele>960.0</ele></trkpt>
      <trkpt lat="21.076399" lon="105.376544"><ele>962.5</ele></trkpt>
      <trkpt lat="21.076374" lon="105.376686"><ele>965.0</ele></trkpt>
      <trkpt lat="21.076380" lon="105.376830"><ele>967.5</ele></trkpt>
      <trkpt lat="21.076413" lon="105.376970"><ele>970.0</ele></trkpt>
      <trkpt lat="21.076467" lon="105.377102"><ele>972.5</ele></trkpt>
      <trkpt lat="21.076539" lon="105.377224"><ele>975.0</ele></trkpt>
      <trkpt lat="21.076622" lon="105.377338"><ele>977.5</ele></trkpt>
      <trkpt lat="21.076713" lon="105.377444"><ele>980.0</ele></trkpt>
      <trkpt lat="21.076808" lon="105.377547"><ele>982.5</ele></trkpt>
      <trkpt lat="21.076903" lon="105.377649"><ele>985.0</ele></trkpt>
      <trkpt lat="21.076996" lon="105.377753"><ele>987.5</ele></trkpt>
      <trkpt lat="21.077082" lon="105.377864"><ele>990.0</ele></trkpt>
      <trkpt lat="21.077158" lon="105.377984"><ele>992.5</ele></trkpt>
      <trkpt lat="21.077219" lon="105.378113"><ele>995.0</ele></trkpt>
      <trkpt lat="21.077259" lon="105.378251"><ele>997.5</ele></trkpt>
      <trkpt lat="21.077274" lon="105.378394"><ele>1000.0</ele></trkpt>
      <trkpt lat="21.077259" lon="105.378538"><ele>1002.5</ele></trkpt>
      <trkpt lat="21.077212" lon="105.378673"><ele>1005.0</ele></trkpt>
      <trkpt lat="21.077133" lon="105.378790"><ele>1007.5</ele></trkpt>
      <trkpt lat="21.077026" lon="105.378878"><ele>1010.0</ele></trkpt>
      <trkpt lat="21.076899" lon="105.378927"><ele>1012.5</ele></trkpt>
      <trkpt lat="21.076765" lon="105.378930"><ele>1015.0</ele></trkpt>
      <trkpt lat="21.076637" lon="105.378886"><ele>1017.5</ele></trkpt>
      <trkpt lat="21.076530" lon="105.378798"><ele>1020.0</ele></trkpt>
      <trkpt lat="21.076457" lon="105.378676"><ele>1022.5</ele></trkpt>
      <trkpt lat="21.076428" lon="105.378535"><ele>1025.0</ele></trkpt>
      <trkpt lat="21.076445" lon="105.378392"><ele>1027.5</ele></trkpt>
      <trkpt lat="21.076506" lon="105.378263"><ele>1030.0</ele></trkpt>
      <trkpt lat="21.076603" lon="105.378162"><ele>1032.5</ele></trkpt>
      <trkpt lat="21.076724" lon="105.378100"><ele>1035.0</ele></trkpt>
      <trkpt lat="21.076858" lon="105.378079"><ele>1037.5</ele></trkpt>
      <trkpt lat="21.076991" lon="105.378099"><ele>1040.0</ele></trkpt>
      <trkpt lat="21.077115" lon="105.378156"><ele>1042.5</ele></trkpt>
      <trkpt lat="21.077223" lon="105.378242"><ele>1045.0</ele></trkpt>
      <trkpt lat="21.077311" lon="105.378352"><ele>1047.5</ele></trkpt>
      <trkpt lat="21.077379" lon="105.378476"><ele>1050.0</ele></trkpt>
      <trkpt lat="21.077428" lon="105.378611"><ele>1052.5</ele></trkpt>
      <trkpt lat="21.077462" lon="105.378750"><ele>1055.0</ele></trkpt>
      <trkpt lat="21.077484" lon="105.378893"><ele>1057.5</ele></trkpt>
      <trkpt lat="21.077499" lon="105.379036"><ele>1060.0</ele></trkpt>
      <trkpt lat="21.077511" lon="105.379180"><ele>1062.5</ele></trkpt>
      <trkpt lat="21.077525" lon="105.379324"><ele>1065.0</ele></trkpt>
      <trkpt lat="21.077545" lon="105.379467"><ele>1067.5</ele></trkpt>
      <trkpt lat="21.077577" lon="105.379607"><ele>1070.0</ele></trkpt>
      <trkpt lat="21.077623" lon="105.379742"><ele>1072.5</ele></trkpt>
      <trkpt lat="21.077689" lon="105.379869"><ele>1075.0</ele></trkpt>
      <trkpt lat="21.077774" lon="105.379981"><ele>1077.5</ele></trkpt>
      <trkpt lat="21.077879" lon="105.380071"><ele>1080.0</ele></trkpt>
      <trkpt lat="21.078000" lon="105.380133"><ele>1082.5</ele></trkpt>
      <trkpt lat="21.078133" lon="105.380159"><ele>1085.0</ele></trkpt>
      <trkpt lat="21.078267" lon="105.380145"><ele>1087.5</ele></trkpt>
      <trkpt lat="21.078391" lon="105.380088"><ele>1090.0</ele></trkpt>
      <trkpt lat="21.078492" lon="105.379993"><ele>1092.5</ele></trkpt>
      <trkpt lat="21.078559" lon="105.379867"><ele>1095.0</ele></trkpt>
      <trkpt lat="21.078583" lon="105.379725"><ele>1097.5</ele></trkpt>
      <trkpt lat="21.078561" lon="105.379583"><ele>1100.0</ele></trkpt>
      <trkpt lat="21.078495" lon="105.379457"><ele>1102.5</ele></trkpt>
      <trkpt lat="21.078392" lon="105.379363"><ele>1105.0</ele></trkpt>
      <trkpt lat="21.078266" lon="105.379312"><ele>1107.5</ele></trkpt>
      <trkpt lat="21.078132" lon="105.379308"><ele>1110.0</ele></trkpt>
      <trkpt lat="21.078003" lon="105.379350"><ele>1112.5</ele></trkpt>
      <trkpt lat="21.077892" lon="105.379433"><ele>1115.0</ele></trkpt>
      <trkpt lat="21.077809" lon="105.379546"><ele>1117.5</ele></trkpt>
      <trkpt lat="21.077757" lon="105.379680"><ele>1120.0</ele></trkpt>
      <trkpt lat="21.077738" lon="105.379822"><ele>1122.5</ele></trkpt>
      <trkpt lat="21.077748" lon="105.379966"><ele>1125.0</ele></trkpt>
      <trkpt lat="21.077785" lon="105.380105"><ele>1127.5</ele></trkpt>
      <trkpt lat="21.077843" lon="105.380236"><ele>1130.0</ele></trkpt>
      <trkpt lat="21.077917" lon="105.380357"><ele>1132.5</ele></trkpt>
      <trkpt lat="21.078001" lon="105.380469"><ele>1135.0</ele></trkpt>
      <trkpt lat="21.078093" lon="105.380574"><ele>1137.5</ele></trkpt>
      <trkpt lat="21.078189" lon="105.380676"><ele>1140.0</ele></trkpt>
      <trkpt lat="21.078284" lon="105.380779"><ele>1142.5</ele></trkpt>
      <trkpt lat="21.078376" lon="105.380884"><ele>1145.0</ele></trkpt>
      <trkpt lat="21.078461" lon="105.380996"><ele>1147.5</ele></trkpt>
      <trkpt lat="21.078534" lon="105.381117"><ele>1150.0</ele></trkpt>
      <trkpt lat="21.078592" lon="105.381248"><ele>1152.5</ele></trkpt>
      <trkpt lat="21.078628" lon="105.381387"><ele>1155.0</ele></trkpt>
      <trkpt lat="21.078638" lon="105.381531"><ele>1157.5</ele></trkpt>
      <trkpt lat="21.078618" lon="105.381674"><ele>1160.0</ele></trkpt>
      <trkpt lat="21.078566" lon="105.381807"><ele>1162.5</ele></trkpt>
      <trkpt lat="21.078482" lon="105.381920"><ele>1165.0</ele></trkpt>
      <trkpt lat="21.078371" lon="105.382002"><ele>1167.5</ele></trkpt>
      <trkpt lat="21.078242" lon="105.382043"><ele>1170.0</ele></trkpt>
      <trkpt lat="21.078107" lon="105.382039"><ele>1172.5</ele></trkpt>
      <trkpt lat="21.077981" lon="105.381986"><ele>1175.0</ele></trkpt>
      <trkpt lat="21.077879" lon="105.381892"><ele>1177.5</ele></trkpt>
      <trkpt lat="21.077814" lon="105.381766"><ele>1180.0</ele></trkpt>
      <trkpt lat="21.077792" lon="105.381623"><ele>1182.5</ele></trkpt>
      <trkpt lat="21.077817" lon="105.381481"><ele>1185.0</ele></trkpt>
      <trkpt lat="21.077885" lon="105.381356"><ele>1187.5</ele></trkpt>
      <trkpt lat="21.077987" lon="105.381262"><ele>1190.0</ele></trkpt>
      <trkpt lat="21.078111" lon="105.381206"><ele>1192.5</ele></trkpt>
      <trkpt lat="21.078245" lon="105.381192"><ele>1195.0</ele></trkpt>
      <trkpt lat="21.078378" lon="105.381219"><ele>1197.5</ele></trkpt>
    </trkseg>
  </trk>
</gpx>